GLOBALSTAR M024 [-]     
1 25883U 99043A   23336.90199730 -.00000088  00000+0 -83964-3 0  9996
2 25883  52.0003 209.3185 0000238 280.9018 165.5675 11.10159008 52410
GLOBALSTAR M027 [-]     
1 25884U 99043B   23336.23595357 -.00000065  00000+0 -48544-4 0  9999
2 25884  52.0221 272.8578 0020933 160.6184 199.5408 11.04365751 79042
GLOBALSTAR M054 [-]     
1 25885U 99043C   23336.70082949 -.00000074  00000+0 -65409-4 0  9999
2 25885  52.0107 133.5083 0003400 282.4386 168.5877 11.39202722 54941
GLOBALSTAR M053 [-]     
1 25886U 99043D   23336.46727459 -.00000054  00000+0  41138-3 0  9994
2 25886  52.0017  49.9477 0003629 197.9878 250.7171 11.27652412 55964
GLOBALSTAR M058 [-]     
1 25907U 99049A   23336.69985951 -.00000063  00000+0  29304-3 0  9993
2 25907  51.9908 171.1250 0001383 265.7693  94.2983 11.93171010474393
GLOBALSTAR M050 [-]     
1 25908U 99049B   23336.88151691 -.00000132  00000+0 -49508-3 0  9997
2 25908  51.9980 220.3250 0009324 357.9969  82.9173 12.07423526 80266
GLOBALSTAR M033 [-]     
1 25909U 99049C   23336.70811846 -.00000097  00000+0 -53984-4 0  9998
2 25909  51.9888 131.4815 0011624 191.1645 168.8945 12.20260101467070
GLOBALSTAR M055 [-]     
1 25910U 99049D   23336.81174082 -.00000077  00000+0  14954-3 0  9996
2 25910  51.9989 169.3059 0007920  50.3707 309.7842 12.29391746 99110
